[
  {
    "name": "ONEWEB-0176",
    "noradId": "48210",
    "line1": "1 48210U 21031A   26186.29501863 -.00000042  00000+0 -14658-3 0  9993",
    "line2": "2 48210  87.8974 286.0911 0002069 102.9840 257.1521 13.14502228250691"
  },
  {
    "name": "ONEWEB-0184",
    "noradId": "48211",
    "line1": "1 48211U 21031B   26186.26806522  .00000275  00000+0  70818-3 0  9997",
    "line2": "2 48211  87.8979 286.0984 0002295 121.2227 238.9128 13.14502157250669"
  },
  {
    "name": "ONEWEB-0179",
    "noradId": "48212",
    "line1": "1 48212U 21031C   26186.34567821  .00000483  00000+0  15198-3 0  9994",
    "line2": "2 48212  87.8996 282.6027 0220353 197.5468 161.8029 14.25541390251636"
  },
  {
    "name": "ONEWEB-0180",
    "noradId": "48213",
    "line1": "1 48213U 21031D   26186.27124382  .00000234  00000+0  59561-3 0  9994",
    "line2": "2 48213  87.8984 286.0942 0002393 104.3202 255.8194 13.14502790250591"
  },
  {
    "name": "ONEWEB-0218",
    "noradId": "48214",
    "line1": "1 48214U 21031E   26186.29343981 -.00000015  00000+0 -75247-4 0  9994",
    "line2": "2 48214  87.8982 286.0891 0002585 117.5935 242.5458 13.14503493250750"
  },
  {
    "name": "ONEWEB-0209",
    "noradId": "48215",
    "line1": "1 48215U 21031F   26186.28234519  .00000258  00000+0  66064-3 0  9993",
    "line2": "2 48215  87.8973 286.1076 0002215  97.9531 262.1850 13.14501547250752"
  },
  {
    "name": "ONEWEB-0198",
    "noradId": "48216",
    "line1": "1 48216U 21031G   26186.26662385  .00000319  00000+0  82539-3 0  9991",
    "line2": "2 48216  87.8963 286.1076 0002403 105.6391 254.5004 13.14502182250866"
  },
  {
    "name": "ONEWEB-0189",
    "noradId": "48217",
    "line1": "1 48217U 21031H   26186.27916590  .00000170  00000+0  42321-3 0  9993",
    "line2": "2 48217  87.8976 286.0931 0002323 105.7739 254.3647 13.14502428250604"
  },
  {
    "name": "ONEWEB-0196",
    "noradId": "48218",
    "line1": "1 48218U 21031J   26186.33308394  .00000150  00000+0  36877-3 0  9995",
    "line2": "2 48218  87.8971 286.0914 0002129 101.5792 258.5576 13.14501988250616"
  },
  {
    "name": "ONEWEB-0183",
    "noradId": "48219",
    "line1": "1 48219U 21031K   26186.30770322 -.00000151  00000+0 -44090-3 0  9996",
    "line2": "2 48219  87.8971 286.0942 0002037  94.3604 265.7758 13.14502035250703"
  },
  {
    "name": "ONEWEB-0185",
    "noradId": "48220",
    "line1": "1 48220U 21031L   26186.33386920  .00000173  00000+0  43112-3 0  9994",
    "line2": "2 48220  87.8978 286.0838 0002315  92.8587 267.2807 13.14503531250634"
  },
  {
    "name": "ONEWEB-0187",
    "noradId": "48221",
    "line1": "1 48221U 21031M   26186.31391036 -.00000162  00000+0 -47074-3 0  9998",
    "line2": "2 48221  87.8972 286.1019 0002194  99.4266 260.7112 13.14502797250644"
  },
  {
    "name": "ONEWEB-0192",
    "noradId": "48222",
    "line1": "1 48222U 21031N   26186.28392750  .00000112  00000+0  26863-3 0  9995",
    "line2": "2 48222  87.8973 286.0982 0002069 102.7858 257.3503 13.14503082250554"
  },
  {
    "name": "ONEWEB-0219",
    "noradId": "48223",
    "line1": "1 48223U 21031P   26186.33941986  .00000329  00000+0  85280-3 0  9991",
    "line2": "2 48223  87.8975 286.0797 0002243  98.1135 262.0249 13.14503416250765"
  },
  {
    "name": "ONEWEB-0202",
    "noradId": "48224",
    "line1": "1 48224U 21031Q   26186.32040051 -.00000041  00000+0 -14442-3 0  9999",
    "line2": "2 48224  87.8973 286.0963 0002447 114.3644 245.7741 13.14502413250740"
  },
  {
    "name": "ONEWEB-0204",
    "noradId": "48225",
    "line1": "1 48225U 21031R   26186.27835458 -.00000281  00000+0 -79285-3 0  9999",
    "line2": "2 48225  87.8975 286.0989 0001944  86.7210 273.4143 13.14503645250633"
  }
]