{"fetched_at":"2026-07-06T08:46:38.495Z","source":"https://celestrak.org/NORAD/elements/gp.php?GROUP=oneweb&FORMAT=JSON","constellation":"oneweb","records":[{"OBJECT_NAME":"ONEWEB-0176","OBJECT_ID":"2021-031A","EPOCH":"2026-07-05T07:04:49.609632","CLASSIFICATION_TYPE":"U","MEAN_MOTION":13.14502228,"ECCENTRICITY":0.0002069,"INCLINATION":87.8974,"RA_OF_ASC_NODE":286.0911,"ARG_OF_PERICENTER":102.984,"MEAN_ANOMALY":257.1521,"EPHEMERIS_TYPE":0,"NORAD_CAT_ID":48210,"ELEMENT_SET_NO":999,"REV_AT_EPOCH":25069,"BSTAR":-0.00014658,"MEAN_MOTION_DOT":-4.2e-7,"MEAN_MOTION_DDOT":0},{"OBJECT_NAME":"ONEWEB-0184","OBJECT_ID":"2021-031B","EPOCH":"2026-07-05T06:26:00.835008","CLASSIFICATION_TYPE":"U","MEAN_MOTION":13.14502157,"ECCENTRICITY":0.0002295,"INCLINATION":87.8979,"RA_OF_ASC_NODE":286.0984,"ARG_OF_PERICENTER":121.2227,"MEAN_ANOMALY":238.9128,"EPHEMERIS_TYPE":0,"NORAD_CAT_ID":48211,"ELEMENT_SET_NO":999,"REV_AT_EPOCH":25066,"BSTAR":0.00070818,"MEAN_MOTION_DOT":0.00000275,"MEAN_MOTION_DDOT":0},{"OBJECT_NAME":"ONEWEB-0179","OBJECT_ID":"2021-031C","EPOCH":"2026-07-05T08:17:46.597344","CLASSIFICATION_TYPE":"U","MEAN_MOTION":14.2554139,"ECCENTRICITY":0.0220353,"INCLINATION":87.8996,"RA_OF_ASC_NODE":282.6027,"ARG_OF_PERICENTER":197.5468,"MEAN_ANOMALY":161.8029,"EPHEMERIS_TYPE":0,"NORAD_CAT_ID":48212,"ELEMENT_SET_NO":999,"REV_AT_EPOCH":25163,"BSTAR":0.00015198,"MEAN_MOTION_DOT":0.00000483,"MEAN_MOTION_DDOT":0},{"OBJECT_NAME":"ONEWEB-0180","OBJECT_ID":"2021-031D","EPOCH":"2026-07-05T06:30:35.466048","CLASSIFICATION_TYPE":"U","MEAN_MOTION":13.1450279,"ECCENTRICITY":0.0002393,"INCLINATION":87.8984,"RA_OF_ASC_NODE":286.0942,"ARG_OF_PERICENTER":104.3202,"MEAN_ANOMALY":255.8194,"EPHEMERIS_TYPE":0,"NORAD_CAT_ID":48213,"ELEMENT_SET_NO":999,"REV_AT_EPOCH":25059,"BSTAR":0.00059561,"MEAN_MOTION_DOT":0.00000234,"MEAN_MOTION_DDOT":0},{"OBJECT_NAME":"ONEWEB-0218","OBJECT_ID":"2021-031E","EPOCH":"2026-07-05T07:02:33.199584","CLASSIFICATION_TYPE":"U","MEAN_MOTION":13.14503493,"ECCENTRICITY":0.0002585,"INCLINATION":87.8982,"RA_OF_ASC_NODE":286.0891,"ARG_OF_PERICENTER":117.5935,"MEAN_ANOMALY":242.5458,"EPHEMERIS_TYPE":0,"NORAD_CAT_ID":48214,"ELEMENT_SET_NO":999,"REV_AT_EPOCH":25075,"BSTAR":-0.000075247,"MEAN_MOTION_DOT":-1.5e-7,"MEAN_MOTION_DDOT":0},{"OBJECT_NAME":"ONEWEB-0209","OBJECT_ID":"2021-031F","EPOCH":"2026-07-05T06:46:34.624416","CLASSIFICATION_TYPE":"U","MEAN_MOTION":13.14501547,"ECCENTRICITY":0.0002215,"INCLINATION":87.8973,"RA_OF_ASC_NODE":286.1076,"ARG_OF_PERICENTER":97.9531,"MEAN_ANOMALY":262.185,"EPHEMERIS_TYPE":0,"NORAD_CAT_ID":48215,"ELEMENT_SET_NO":999,"REV_AT_EPOCH":25075,"BSTAR":0.00066064,"MEAN_MOTION_DOT":0.00000258,"MEAN_MOTION_DDOT":0},{"OBJECT_NAME":"ONEWEB-0198","OBJECT_ID":"2021-031G","EPOCH":"2026-07-05T06:23:56.300640","CLASSIFICATION_TYPE":"U","MEAN_MOTION":13.14502182,"ECCENTRICITY":0.0002403,"INCLINATION":87.8963,"RA_OF_ASC_NODE":286.1076,"ARG_OF_PERICENTER":105.6391,"MEAN_ANOMALY":254.5004,"EPHEMERIS_TYPE":0,"NORAD_CAT_ID":48216,"ELEMENT_SET_NO":999,"REV_AT_EPOCH":25086,"BSTAR":0.00082539,"MEAN_MOTION_DOT":0.00000319,"MEAN_MOTION_DDOT":0},{"OBJECT_NAME":"ONEWEB-0189","OBJECT_ID":"2021-031H","EPOCH":"2026-07-05T06:41:59.933760","CLASSIFICATION_TYPE":"U","MEAN_MOTION":13.14502428,"ECCENTRICITY":0.0002323,"INCLINATION":87.8976,"RA_OF_ASC_NODE":286.0931,"ARG_OF_PERICENTER":105.7739,"MEAN_ANOMALY":254.3647,"EPHEMERIS_TYPE":0,"NORAD_CAT_ID":48217,"ELEMENT_SET_NO":999,"REV_AT_EPOCH":25060,"BSTAR":0.00042321,"MEAN_MOTION_DOT":0.0000017,"MEAN_MOTION_DDOT":0},{"OBJECT_NAME":"ONEWEB-0196","OBJECT_ID":"2021-031J","EPOCH":"2026-07-05T07:59:38.452416","CLASSIFICATION_TYPE":"U","MEAN_MOTION":13.14501988,"ECCENTRICITY":0.0002129,"INCLINATION":87.8971,"RA_OF_ASC_NODE":286.0914,"ARG_OF_PERICENTER":101.5792,"MEAN_ANOMALY":258.5576,"EPHEMERIS_TYPE":0,"NORAD_CAT_ID":48218,"ELEMENT_SET_NO":999,"REV_AT_EPOCH":25061,"BSTAR":0.00036877,"MEAN_MOTION_DOT":0.0000015,"MEAN_MOTION_DDOT":0},{"OBJECT_NAME":"ONEWEB-0183","OBJECT_ID":"2021-031K","EPOCH":"2026-07-05T07:23:05.558208","CLASSIFICATION_TYPE":"U","MEAN_MOTION":13.14502035,"ECCENTRICITY":0.0002037,"INCLINATION":87.8971,"RA_OF_ASC_NODE":286.0942,"ARG_OF_PERICENTER":94.3604,"MEAN_ANOMALY":265.7758,"EPHEMERIS_TYPE":0,"NORAD_CAT_ID":48219,"ELEMENT_SET_NO":999,"REV_AT_EPOCH":25070,"BSTAR":-0.0004409,"MEAN_MOTION_DOT":-0.00000151,"MEAN_MOTION_DDOT":0},{"OBJECT_NAME":"ONEWEB-0185","OBJECT_ID":"2021-031L","EPOCH":"2026-07-05T08:00:46.298880","CLASSIFICATION_TYPE":"U","MEAN_MOTION":13.14503531,"ECCENTRICITY":0.0002315,"INCLINATION":87.8978,"RA_OF_ASC_NODE":286.0838,"ARG_OF_PERICENTER":92.8587,"MEAN_ANOMALY":267.2807,"EPHEMERIS_TYPE":0,"NORAD_CAT_ID":48220,"ELEMENT_SET_NO":999,"REV_AT_EPOCH":25063,"BSTAR":0.00043112,"MEAN_MOTION_DOT":0.00000173,"MEAN_MOTION_DDOT":0},{"OBJECT_NAME":"ONEWEB-0187","OBJECT_ID":"2021-031M","EPOCH":"2026-07-05T07:32:01.855104","CLASSIFICATION_TYPE":"U","MEAN_MOTION":13.14502797,"ECCENTRICITY":0.0002194,"INCLINATION":87.8972,"RA_OF_ASC_NODE":286.1019,"ARG_OF_PERICENTER":99.4266,"MEAN_ANOMALY":260.7112,"EPHEMERIS_TYPE":0,"NORAD_CAT_ID":48221,"ELEMENT_SET_NO":999,"REV_AT_EPOCH":25064,"BSTAR":-0.00047074,"MEAN_MOTION_DOT":-0.00000162,"MEAN_MOTION_DDOT":0},{"OBJECT_NAME":"ONEWEB-0192","OBJECT_ID":"2021-031N","EPOCH":"2026-07-05T06:48:51.336000","CLASSIFICATION_TYPE":"U","MEAN_MOTION":13.14503082,"ECCENTRICITY":0.0002069,"INCLINATION":87.8973,"RA_OF_ASC_NODE":286.0982,"ARG_OF_PERICENTER":102.7858,"MEAN_ANOMALY":257.3503,"EPHEMERIS_TYPE":0,"NORAD_CAT_ID":48222,"ELEMENT_SET_NO":999,"REV_AT_EPOCH":25055,"BSTAR":0.00026863,"MEAN_MOTION_DOT":0.00000112,"MEAN_MOTION_DDOT":0},{"OBJECT_NAME":"ONEWEB-0219","OBJECT_ID":"2021-031P","EPOCH":"2026-07-05T08:08:45.875904","CLASSIFICATION_TYPE":"U","MEAN_MOTION":13.14503416,"ECCENTRICITY":0.0002243,"INCLINATION":87.8975,"RA_OF_ASC_NODE":286.0797,"ARG_OF_PERICENTER":98.1135,"MEAN_ANOMALY":262.0249,"EPHEMERIS_TYPE":0,"NORAD_CAT_ID":48223,"ELEMENT_SET_NO":999,"REV_AT_EPOCH":25076,"BSTAR":0.0008528,"MEAN_MOTION_DOT":0.00000329,"MEAN_MOTION_DDOT":0},{"OBJECT_NAME":"ONEWEB-0202","OBJECT_ID":"2021-031Q","EPOCH":"2026-07-05T07:41:22.604064","CLASSIFICATION_TYPE":"U","MEAN_MOTION":13.14502413,"ECCENTRICITY":0.0002447,"INCLINATION":87.8973,"RA_OF_ASC_NODE":286.0963,"ARG_OF_PERICENTER":114.3644,"MEAN_ANOMALY":245.7741,"EPHEMERIS_TYPE":0,"NORAD_CAT_ID":48224,"ELEMENT_SET_NO":999,"REV_AT_EPOCH":25074,"BSTAR":-0.00014442,"MEAN_MOTION_DOT":-4.1e-7,"MEAN_MOTION_DDOT":0},{"OBJECT_NAME":"ONEWEB-0204","OBJECT_ID":"2021-031R","EPOCH":"2026-07-05T06:40:49.835712","CLASSIFICATION_TYPE":"U","MEAN_MOTION":13.14503645,"ECCENTRICITY":0.0001944,"INCLINATION":87.8975,"RA_OF_ASC_NODE":286.0989,"ARG_OF_PERICENTER":86.721,"MEAN_ANOMALY":273.4143,"EPHEMERIS_TYPE":0,"NORAD_CAT_ID":48225,"ELEMENT_SET_NO":999,"REV_AT_EPOCH":25063,"BSTAR":-0.00079285,"MEAN_MOTION_DOT":-0.00000281,"MEAN_MOTION_DDOT":0}]}
